TEVEL2-6                
1 63215U 25052F   26068.64958975  .00021046  00000+0  70909-3 0  9996
2 63215  97.4016 325.0381 0004769  95.6604 264.5181 15.30760889 54861
STARLINK-34860          
1 65357U 25190G   26068.55410852  .00024653  00000+0  84198-3 0  9997
2 65357  53.1577 168.8627 0000780  68.5983 291.5100 15.30190653 29268
